NORAD_CAT_ID,OBJECT_NAME,OBJECT_TYPE,EPOCH,MEAN_MOTION,ECCENTRICITY,INCLINATION,RA_OF_ASC_NODE,ARG_OF_PERICENTER,MEAN_ANOMALY,BSTAR,MEAN_MOTION_DOT,MEAN_MOTION_DDOT,TLE_LINE0,TLE_LINE1,TLE_LINE2,SEMIMAJOR_AXIS,PERIOD,APOGEE,PERIGEE,DECAYED
53861.0,STARLINK-4781,PAYLOAD,2023-01-04 14:00:01,15.11683546,0.0001346,53.2177,92.2009,61.8321,269.9895,-0.07368,-0.01166308,0.0,0 STARLINK-4781,1 53861U 22114AV  23004.58335648 -.01166308  00000-0 -73680-1 0  9996,2 53861  53.2177  92.2009 0001346  61.8321 269.9895 15.11683546  1309,6909.2019999999975,95.258,531.997,530.137,0.0
53861.0,STARLINK-4781,PAYLOAD,2023-01-04 16:00:00,15.11463069,0.0001453999999999,53.2175,91.8255,58.2904,7.1926,-0.072482,-0.01142324,0.0,0 STARLINK-4781,1 53861U 22114AV  23004.66667824 -.01142324  00000-0 -72482-1 0  9990,2 53861  53.2175  91.8255 0001454  58.2904   7.1926 15.11463069 17447,6909.874,95.272,532.744,530.735,0.0
53861.0,STARLINK-4781,PAYLOAD,2023-01-04 22:00:00,15.10771545,9.49e-05,53.2185,90.6979,77.0611,269.4102,-0.077829,-0.01198133,0.0,0 STARLINK-4781,1 53861U 22114AV  23004.91667824 -.01198133  00000-0 -77829-1 0  9997,2 53861  53.2185  90.6979 0000949  77.0611 269.4102 15.10771545  1307,6911.983,95.316,534.504,533.192,0.0
53861.0,STARLINK-4781,PAYLOAD,2023-01-05 00:00:00,15.10431193,9.3e-05,53.2187,90.3223,84.0177,355.9354,-0.060429,-0.0092869,0.0,0 STARLINK-4781,1 53861U 22114AV  23005.00001157 -.00928690  00000-0 -60429-1 0  9995,2 53861  53.2187  90.3223 0000930  84.0177 355.9354 15.10431193 17492,6913.021,95.337,535.529,534.243,0.0
53861.0,STARLINK-4781,PAYLOAD,2023-01-05 14:00:01,15.09007626,0.0001631,53.2188,87.7013,80.2299,292.1569,-0.016829,-0.00259794,0.0,0 STARLINK-4781,1 53861U 22114AV  23005.58334491 -.00259794  00000-0 -16829-1 0  9995,2 53861  53.2188  87.7013 0001631  80.2299 292.1569 15.09007626  1303,6917.368,95.427,540.361,538.105,0.0
53861.0,STARLINK-4781,PAYLOAD,2023-01-05 20:00:01,15.08850533,0.0001484,53.2184,86.5782,79.2158,211.9482,-0.002218,-0.00035424,0.0,0 STARLINK-4781,1 53861U 22114AV  23005.83334491 -.00035424  00000-0 -22180-2 0  9993,2 53861  53.2184  86.5782 0001484  79.2158 211.9482 15.08850533  1302,6917.848000000001,95.437,540.74,538.687,0.0
53861.0,STARLINK-4781,PAYLOAD,2023-01-06 08:00:01,15.08856182,0.0001546,53.2186,84.3334,92.0796,36.4901,-0.0019134,-0.00030624,0.0,0 STARLINK-4781,1 53861U 22114AV  23006.33334491 -.00030624  00000-0 -19134-2 0  9991,2 53861  53.2186  84.3334 0001546  92.0796  36.4901 15.08856182 17694,6917.831,95.437,540.765,538.626,0.0
53861.0,STARLINK-4781,PAYLOAD,2023-01-06 22:00:00,15.08809912,0.0001356,53.2182,81.7149,96.2715,322.5645,7.8955e-05,9.68e-06,0.0,0 STARLINK-4781,1 53861U 22114AV  23006.91667824  .00000968  00000-0  78955-4 0  9998,2 53861  53.2182  81.7149 0001356  96.2715 322.5645 15.08809912  1305,6917.972,95.439,540.775,538.899,0.0
53861.0,STARLINK-4781,PAYLOAD,2023-01-07 06:00:00,15.08828489,0.0001404,53.2182,80.2186,101.0104,329.3777,0.00094892,0.00014842,0.0,0 STARLINK-4781,1 53861U 22114AV  23007.25001157  .00014842  00000-0  94892-3 0  9990,2 53861  53.2182  80.2186 0001404 101.0104 329.3777 15.08828489  1302,6917.916,95.438,540.752,538.809,0.0
53861.0,STARLINK-4781,PAYLOAD,2023-01-07 14:00:01,15.08818467,0.0001368,53.218,78.7239,91.9576,350.023,0.0022575,0.00035802,0.0,0 STARLINK-4781,1 53861U 22114AV  23007.58334491  .00035802  00000-0  22575-2 0  9993,2 53861  53.2180  78.7239 0001368  91.9576 350.0230 15.08818467 17880,6917.946,95.439,540.758,538.865,0.0
53861.0,STARLINK-4781,PAYLOAD,2023-01-08 00:00:00,15.08827159,0.0001326,53.2175,76.8517,100.2721,86.198,0.0031495,0.00050176,0.0,0 STARLINK-4781,1 53861U 22114AV  23008.00001157  .00050176  00000-0  31495-2 0  9993,2 53861  53.2175  76.8517 0001326 100.2721  86.1980 15.08827159  1309,6917.92,95.438,540.702,538.867,0.0
53861.0,STARLINK-4781,PAYLOAD,2023-01-08 14:00:01,15.08825518,0.0001367,53.2174,74.2349,81.2019,35.6005,-0.00016771,-2.955e-05,0.0,0 STARLINK-4781,1 53861U 22114AV  23008.58334491 -.00002955  00000-0 -16771-3 0  9991,2 53861  53.2174  74.2349 0001367  81.2019  35.6005 15.08825518 18038,6917.925,95.438,540.735,538.844,0.0
53861.0,STARLINK-4781,PAYLOAD,2023-01-08 22:00:00,15.08824387,0.0001330999999999,53.2173,72.7369,84.5033,43.8787,0.0011663,0.00018314,0.0,0 STARLINK-4781,1 53861U 22114AV  23008.91667824  .00018314  00000-0  11663-2 0  9995,2 53861  53.2173  72.7369 0001331  84.5033  43.8787 15.08824387  1308,6917.928000000001,95.439,540.714,538.872,0.0
53861.0,STARLINK-4781,PAYLOAD,2023-01-09 10:09:06,15.08842454,0.0001616,53.2185,70.4655,85.0086,275.1091,6.3927e-05,7.299999999999999e-06,0.0,0 STARLINK-4781,1 53861U 22114AV  23009.42299672  .00000730  00000-0  63927-4 0  9999,2 53861  53.2185  70.4655 0001616  85.0086 275.1091 15.08842454 18709,6917.873000000001,95.437,540.856,538.62,0.0
53861.0,STARLINK-4781,PAYLOAD,2023-01-09 21:16:49,15.08838521,0.0001520999999999,53.2191,68.3845,82.6879,277.4286,1.1308e-05,-1.08e-06,0.0,0 STARLINK-4781,1 53861U 22114AV  23009.88668070 -.00000108  00000-0  11308-4 0  9997,2 53861  53.2191  68.3845 0001521  82.6879 277.4286 15.08838521 18779,6917.885,95.438,540.802,538.698,0.0
53861.0,STARLINK-4781,PAYLOAD,2023-01-10 13:10:39,15.08851381,0.0001437,53.2202,65.4048,104.4293,255.6859,-4.0579e-05,-9.34e-06,0.0,0 STARLINK-4781,1 53861U 22114AV  23010.54907083 -.00000934  00000-0 -40579-4 0  9992,2 53861  53.2202  65.4048 0001437 104.4293 255.6859 15.08851381 18339,6917.846,95.437,540.705,538.717,0.0
53861.0,STARLINK-4781,PAYLOAD,2023-01-11 13:01:26,15.08847788,0.0001363,53.2197,60.9455,101.7325,258.382,1.852e-05,7e-08,0.0,0 STARLINK-4781,1 53861U 22114AV  23011.54266922  .00000007  00000-0  18520-4 0  9993,2 53861  53.2197  60.9455 0001363 101.7325 258.3820 15.08847788 19029,6917.857,95.437,540.664,538.779,0.0
53861.0,STARLINK-4781,PAYLOAD,2023-01-12 19:13:46,15.08839116,0.0001117,53.2177,55.2965,75.3178,284.7938,-6.9243e-05,-1.39e-05,0.0,0 STARLINK-4781,1 53861U 22114AV  23012.80123806 -.00001390  00000-0 -69243-4 0  9992,2 53861  53.2177  55.2965 0001117  75.3178 284.7938 15.08839116 18678,6917.883000000002,95.438,540.521,538.975,0.0
53861.0,STARLINK-4781,PAYLOAD,2023-01-12 23:59:56,15.08829707,0.0001462,53.217,54.4067,98.6087,261.5071,-3.7738e-05,-8.88e-06,0.0,0 STARLINK-4781,1 53861U 22114AV  23012.99996460 -.00000888  00000-0 -37738-4 0  9991,2 53861  53.2170  54.4067 0001462  98.6087 261.5071 15.08829707 18705,6917.911999999998,95.438,540.788,538.765,0.0
53861.0,STARLINK-4781,PAYLOAD,2023-01-13 09:32:15,15.08843101,0.0001272,53.2186,52.6243,95.8334,264.2803,-3.5039e-05,-8.46e-06,0.0,0 STARLINK-4781,1 53861U 22114AV  23013.39739798 -.00000846  00000-0 -35039-4 0  9991,2 53861  53.2186  52.6243 0001272  95.8334 264.2803 15.08843101 18764,6917.871,95.437,540.616,538.856,0.0
53861.0,STARLINK-4781,PAYLOAD,2023-01-13 19:04:34,15.08837041,0.0001202,53.2184,50.8403,96.4071,263.7058,-5.3892e-05,-1.145e-05,0.0,0 STARLINK-4781,1 53861U 22114AV  23013.79484219 -.00001145  00000-0 -53892-4 0  9990,2 53861  53.2184  50.8403 0001202  96.4071 263.7058 15.08837041 19367,6917.889,95.438,540.586,538.923,0.0
53861.0,STARLINK-4781,PAYLOAD,2023-01-14 18:55:20,15.08843384,9.71e-05,53.2179,46.3772,83.4852,276.6251,3.9466e-05,3.4e-06,0.0,0 STARLINK-4781,1 53861U 22114AV  23014.78843604  .00000340  00000-0  39466-4 0  9992,2 53861  53.2179  46.3772 0000971  83.4852 276.6251 15.08843384 18976,6917.87,95.437,540.4069999999999,539.063,0.0
53861.0,STARLINK-4781,PAYLOAD,2023-01-15 02:52:18,15.08821741,0.0001346,53.2193,44.8951,103.483,256.6312,-7.6833e-05,-1.51e-05,0.0,0 STARLINK-4781,1 53861U 22114AV  23015.11965689 -.00001510  00000-0 -76833-4 0  9999,2 53861  53.2193  44.8951 0001346 103.4830 256.6312 15.08821741 19026,6917.936,95.439,540.732,538.87,0.0
53861.0,STARLINK-4781,PAYLOAD,2023-01-15 12:24:35,15.08842188,9.63e-05,53.2185,43.1052,76.3271,283.7828,1.1165e-05,-1.1e-06,0.0,0 STARLINK-4781,1 53861U 22114AV  23015.51708229 -.00000110  00000-0  11165-4 0  9999,2 53861  53.2185  43.1052 0000963  76.3271 283.7828 15.08842188 19089,6917.874,95.437,540.405,539.073,0.0
53861.0,STARLINK-4781,PAYLOAD,2023-01-15 18:46:08,15.08840318,0.0001028,53.2188,41.9156,80.9554,279.1554,2.5918e-05,1.25e-06,0.0,0 STARLINK-4781,1 53861U 22114AV  23015.78204272  .00000125  00000-0  25918-4 0  9993,2 53861  53.2188  41.9156 0001028  80.9554 279.1554 15.08840318 19663,6917.879,95.438,540.456,539.033,0.0
53861.0,STARLINK-4781,PAYLOAD,2023-01-16 05:53:49,15.08848383,9.8e-05,53.2179,39.8341,88.5806,271.5298,0.00016046,2.267e-05,0.0,0 STARLINK-4781,1 53861U 22114AV  23016.24571282  .00002267  00000-0  16046-3 0  9993,2 53861  53.2179  39.8341 0000980  88.5806 271.5298 15.08848383 19194,6917.855,95.437,540.398,539.0419999999999,0.0
53861.0,STARLINK-4781,PAYLOAD,2023-01-16 12:15:20,15.08871207,0.0001298,53.2196,38.646,87.9098,272.2043,0.00019899,2.883e-05,0.0,0 STARLINK-4781,1 53861U 22114AV  23016.51065393  .00002883  00000-0  19899-3 0  9997,2 53861  53.2196  38.6460 0001298  87.9098 272.2043 15.08871207 19233,6917.785,95.436,540.548,538.752,0.0
53861.0,STARLINK-4781,PAYLOAD,2023-01-16 18:36:55,15.08833163,0.0001261,53.2182,37.4556,93.0015,267.1122,-0.00010705,-1.991e-05,0.0,0 STARLINK-4781,1 53861U 22114AV  23016.77564701 -.00001991  00000-0 -10705-3 0  9990,2 53861  53.2182  37.4556 0001261  93.0015 267.1122 15.08833163 19272,6917.901,95.438,540.639,538.894,0.0
53861.0,STARLINK-4781,PAYLOAD,2023-01-17 07:20:02,15.0880929,0.0001439,53.219,35.0789,95.0211,265.0946,-6.7846e-05,-1.367e-05,0.0,0 STARLINK-4781,1 53861U 22114AV  23017.30558770 -.00001367  00000-0 -67846-4 0  9995,2 53861  53.2190  35.0789 0001439  95.0211 265.0946 15.08809290 19354,6917.974,95.439,540.835,538.844,0.0
